LEMUR-2-VALHALLA        
1 58900U 24022B   26189.51761269  .00012113  00000+0  30170-3 0  9996
2 58900  97.4095  39.7731 0009908  46.0433 314.1629 15.40344373135553
LEMUR-2-CAEL            
1 58903U 24022E   26189.96344159  .00012930  00000+0  30790-3 0  9998
2 58903  97.4079  41.1995 0007848  30.7349 329.4356 15.41708829135696
LEMUR-2-JOHNNYTRUONG    
1 59146U 24043BA  26189.68505893  .00033181  00000+0  37828-3 0  9994
2 59146  97.5388 342.7481 0004329 112.0392 248.1325 15.62171037131397
LEMUR-2-TOMATOKECHUP    
1 60471U 24149D   26190.18826611  .00008251  00000+0  23392-3 0  9996
2 60471  97.3793 272.2971 0003009 133.0589 227.0907 15.36499131105543
LEMUR-2-STELLA          
1 60533U 24149BT  26190.05274528  .00007901  00000+0  46022-3 0  9991
2 60533  97.6729 272.6092 0001033 111.4430 248.6911 15.12285468103803
LEMUR-2-MARHISYAM       
1 60536U 24149BW  26190.17364470  .00008195  00000+0  48492-3 0  9992
2 60536  97.6877 273.2018 0002797  78.4878 281.6666 15.11702055103800
LEMUR-2-AHMED-ASRAR     
1 60576U 24149DN  26190.64909446  .00008854  00000+0  50191-3 0  9997
2 60576  97.7003 275.8609 0000696 238.2920 121.8243 15.13228976103960
LEMUR-2-LLOYD           
1 60577U 24149DP  26190.05092683  .00006907  00000+0  43278-3 0  9994
2 60577  97.6737 271.1966 0004815  85.7812 274.3967 15.09671321103699
LEMUR-2-SQUIRRELCOMM    
1 60578U 24149DQ  26189.03451372  .00003681  00000+0  24740-3 0  9994
2 60578  97.6707 269.8822 0004746 354.4134   5.7039 15.07397331103542
LEMUR-2-SIERRINI        
1 60579U 24149DR  26190.20145872  .00007493  00000+0  44695-3 0  9997
2 60579  97.6833 272.8968 0006475 106.2178 253.9765 15.11428190103782
LEMUR-2-WILSON          
1 62694U 25009CP  26190.17913811  .00001582  00000+0  14892-3 0  9994
2 62694  97.7024 268.2582 0002438 357.7647   2.3562 14.95266051 80642
LEMUR-2-STAR-FOX        
1 62696U 25009CR  26190.20095292  .00004293  00000+0  32529-3 0  9993
2 62696  97.6923 271.6529 0003047  63.5435 296.6102 15.02796400 80861
LEMUR-2-ARIANNA         
1 62699U 25009CU  26189.79991603  .00003955  00000+0  30009-3 0  9994
2 62699  97.6861 271.0121 0003448  70.2797 289.8800 15.02792285 80808
LEMUR-2-ALISIA          
1 62706U 25009DB  26190.17308690  .00006040  00000+0  45186-3 0  9995
2 62706  97.6960 272.1946 0003602 148.4324 211.7118 15.03115065103460
LEMUR-2-ROUNDTRIPPER    
1 62711U 25009DG  26190.18249634  .00006780  00000+0  49281-3 0  9995
2 62711  97.7231 272.8330 0004394  77.4321 282.7396 15.04164311 80930
LEMUR-2-MYNAMEISJEFF    
1 62712U 25009DH  26190.18094896  .00006756  00000+0  49119-3 0  9997
2 62712  97.7284 273.2256 0003629 111.5871 248.5742 15.04156817 80938
